{
  "links" : {
    "next" : "https://api.nasa.gov/neo/rest/v1/feed?start_date=2014-12-09&end_date=2014-12-09&detailed=true&api_key=t0TVs3DtDT2H8Oy2Zy8m2eVrNsAVKAexjcZXUckd",
    "prev" : "https://api.nasa.gov/neo/rest/v1/feed?start_date=2014-12-07&end_date=2014-12-07&detailed=true&api_key=t0TVs3DtDT2H8Oy2Zy8m2eVrNsAVKAexjcZXUckd",
    "self" : "https://api.nasa.gov/neo/rest/v1/feed?start_date=2014-12-08&end_date=2014-12-08&detailed=true&api_key=t0TVs3DtDT2H8Oy2Zy8m2eVrNsAVKAexjcZXUckd"
  },
  "element_count" : 9,
  "near_earth_objects" : {
    "2014-12-08" : [ {
      "links" : {
        "self" : "https://api.nasa.gov/neo/rest/v1/neo/2410195?api_key=t0TVs3DtDT2H8Oy2Zy8m2eVrNsAVKAexjcZXUckd"
      },
      "neo_reference_id" : "2410195",
      "name" : "410195 (2007 RT147)",
      "nasa_jpl_url" : "http://ssd.jpl.nasa.gov/sbdb.cgi?sstr=2410195",
      "absolute_magnitude_h" : 18.4,
      "estimated_diameter" : {
        "kilometers" : {
          "estimated_diameter_min" : 0.5553349116,
          "estimated_diameter_max" : 1.2417666126
        },
        "meters" : {
          "estimated_diameter_min" : 555.334911581,
          "estimated_diameter_max" : 1241.766612574
        },
        "miles" : {
          "estimated_diameter_min" : 0.3450690093,
          "estimated_diameter_max" : 0.7715977618
        },
        "feet" : {
          "estimated_diameter_min" : 1821.9649913114,
          "estimated_diameter_max" : 4074.0375731972
        }
      },
      "is_potentially_hazardous_asteroid" : false,
      "close_approach_data" : [ {
        "close_approach_date" : "2014-12-08",
        "epoch_date_close_approach" : 1418025600000,
        "relative_velocity" : {
          "kilometers_per_second" : "3.5527425003",
          "kilometers_per_hour" : "12789.8730010858",
          "miles_per_hour" : "7947.1296989247"
        },
        "miss_distance" : {
          "astronomical" : "0.2905016979",
          "lunar" : "113.0051574707",
          "kilometers" : "43458432",
          "miles" : "27003818"
        },
        "orbiting_body" : "Earth"
      } ],
      "orbital_data" : {
        "orbit_id" : "103",
        "orbit_determination_date" : "2017-04-06 09:21:41",
        "orbit_uncertainty" : "0",
        "minimum_orbit_intersection" : ".230771",
        "jupiter_tisserand_invariant" : "3.442",
        "epoch_osculation" : "2458000.5",
        "eccentricity" : ".4699612018380527",
        "semi_major_axis" : "2.288625771367995",
        "inclination" : "3.834988519827679",
        "ascending_node_longitude" : "99.1701768026705",
        "orbital_period" : "1264.621622073367",
        "perihelion_distance" : "1.213060453298352",
        "perihelion_argument" : "344.9365706335601",
        "aphelion_distance" : "3.364191089437639",
        "perihelion_time" : "2458282.401967993825",
        "mean_anomaly" : "279.7509304708935",
        "mean_motion" : ".2846701287692474",
        "equinox" : "J2000"
      }
    }, {
      "links" : {
        "self" : "https://api.nasa.gov/neo/rest/v1/neo/2418846?api_key=t0TVs3DtDT2H8Oy2Zy8m2eVrNsAVKAexjcZXUckd"
      },
      "neo_reference_id" : "2418846",
      "name" : "418846 (2008 WJ60)",
      "nasa_jpl_url" : "http://ssd.jpl.nasa.gov/sbdb.cgi?sstr=2418846",
      "absolute_magnitude_h" : 21.3,
      "estimated_diameter" : {
        "kilometers" : {
          "estimated_diameter_min" : 0.1460679643,
          "estimated_diameter_max" : 0.3266178974
        },
        "meters" : {
          "estimated_diameter_min" : 146.0679642714,
          "estimated_diameter_max" : 326.6178974458
        },
        "miles" : {
          "estimated_diameter_min" : 0.090762397,
          "estimated_diameter_max" : 0.2029508896
        },
        "feet" : {
          "estimated_diameter_min" : 479.2256199,
          "estimated_diameter_max" : 1071.581062656
        }
      },
      "is_potentially_hazardous_asteroid" : false,
      "close_approach_data" : [ {
        "close_approach_date" : "2014-12-08",
        "epoch_date_close_approach" : 1418025600000,
        "relative_velocity" : {
          "kilometers_per_second" : "9.4226845267",
          "kilometers_per_hour" : "33921.6642960991",
          "miles_per_hour" : "21077.6030177622"
        },
        "miss_distance" : {
          "astronomical" : "0.1637857166",
          "lunar" : "63.7126426697",
          "kilometers" : "24501994",
          "miles" : "15224833"
        },
        "orbiting_body" : "Earth"
      } ],
      "orbital_data" : {
        "orbit_id" : "29",
        "orbit_determination_date" : "2017-04-06 09:21:13",
        "orbit_uncertainty" : "0",
        "minimum_orbit_intersection" : ".151332",
        "jupiter_tisserand_invariant" : "4.271",
        "epoch_osculation" : "2458000.5",
        "eccentricity" : ".291462635351139",
        "semi_major_axis" : "1.598470544691193",
        "inclination" : "16.69314907086297",
        "ascending_node_longitude" : "259.4497866547777",
        "orbital_period" : "738.1682877582584",
        "perihelion_distance" : "1.132576107204327",
        "perihelion_argument" : "169.9586387960634",
        "aphelion_distance" : "2.064364982178058",
        "perihelion_time" : "2457734.504265967682",
        "mean_anomaly" : "129.724435253705",
        "mean_motion" : ".4876936681922264",
        "equinox" : "J2000"
      }
    }, {
      "links" : {
        "self" : "https://api.nasa.gov/neo/rest/v1/neo/3174207?api_key=t0TVs3DtDT2H8Oy2Zy8m2eVrNsAVKAexjcZXUckd"
      },
      "neo_reference_id" : "3174207",
      "name" : "(2004 BS102)",
      "nasa_jpl_url" : "http://ssd.jpl.nasa.gov/sbdb.cgi?sstr=3174207",
      "absolute_magnitude_h" : 19.3,
      "estimated_diameter" : {
        "kilometers" : {
          "estimated_diameter_min" : 0.3669061375,
          "estimated_diameter_max" : 0.8204270649
        },
        "meters" : {
          "estimated_diameter_min" : 366.9061375314,
          "estimated_diameter_max" : 820.4270648822
        },
        "miles" : {
          "estimated_diameter_min" : 0.2279848336,
          "estimated_diameter_max" : 0.5097895857
        },
        "feet" : {
          "estimated_diameter_min" : 1203.7603322587,
          "estimated_diameter_max" : 2691.6899315481
        }
      },
      "is_potentially_hazardous_asteroid" : false,
      "close_approach_data" : [ {
        "close_approach_date" : "2014-12-08",
        "epoch_date_close_approach" : 1418025600000,
        "relative_velocity" : {
          "kilometers_per_second" : "12.7503134497",
          "kilometers_per_hour" : "45901.1284188271",
          "miles_per_hour" : "28521.1761555762"
        },
        "miss_distance" : {
          "astronomical" : "0.4634657139",
          "lunar" : "180.2881622314",
          "kilometers" : "69333488",
          "miles" : "43081832"
        },
        "orbiting_body" : "Earth"
      } ],
      "orbital_data" : {
        "orbit_id" : "33",
        "orbit_determination_date" : "2016-06-03 06:17:13",
        "orbit_uncertainty" : "0",
        "minimum_orbit_intersection" : ".191221",
        "jupiter_tisserand_invariant" : "4.002",
        "epoch_osculation" : "2457600.5",
        "eccentricity" : ".3855340550646503",
        "semi_major_axis" : "1.706104171038808",
        "inclination" : "25.65294290153268",
        "ascending_node_longitude" : "126.8440225762767",
        "orbital_period" : "813.9668987129779",
        "perihelion_distance" : "1.048342911615503",
        "perihelion_argument" : "244.7486875901667",
        "aphelion_distance" : "2.363865430462113",
        "perihelion_time" : "2457753.709261379076",
        "mean_anomaly" : "292.2388487987932",
        "mean_motion" : ".4422784275002117",
        "equinox" : "J2000"
      }
    } ]
  }
}